{
    "links": {
        "self": "http://www.neowsapp.com/rest/v1/neo/3568014?api_key=iIulBulltgU6a56xZRHN4H3l9WmuAYTsLGpBGhQ2"
    },
    "id": "3568014",
    "neo_reference_id": "3568014",
    "name": "(2011 LJ20)",
    "designation": "2011 LJ20",
    "nasa_jpl_url": "http://ssd.jpl.nasa.gov/sbdb.cgi?sstr=3568014",
    "absolute_magnitude_h": 20.6,
    "estimated_diameter": {
        "kilometers": {
            "estimated_diameter_min": 0.2016299194,
            "estimated_diameter_max": 0.4508582062
        },
        "meters": {
            "estimated_diameter_min": 201.6299194428,
            "estimated_diameter_max": 450.8582061718
        },
        "miles": {
            "estimated_diameter_min": 0.1252869847,
            "estimated_diameter_max": 0.2801502144
        },
        "feet": {
            "estimated_diameter_min": 661.5155049046,
            "estimated_diameter_max": 1479.1936371367
        }
    },
    "is_potentially_hazardous_asteroid": false,
    "close_approach_data": [
        {
            "close_approach_date": "2011-06-23",
            "close_approach_date_full": "2011-Jun-23 08:10",
            "epoch_date_close_approach": 1308816600000,
            "relative_velocity": {
                "kilometers_per_second": "21.5734592128",
                "kilometers_per_hour": "77664.4531661124",
                "miles_per_hour": "48257.6709131325"
            },
            "miss_distance": {
                "astronomical": "0.3301796978",
                "lunar": "128.4399024442",
                "kilometers": "49394179.508123686",
                "miles": "30692119.9338354268"
            },
            "orbiting_body": "Earth"
        },
        {
            "close_approach_date": "2013-02-26",
            "close_approach_date_full": "2013-Feb-26 12:04",
            "epoch_date_close_approach": 1361880240000,
            "relative_velocity": {
                "kilometers_per_second": "8.7174863186",
                "kilometers_per_hour": "31382.9507470221",
                "miles_per_hour": "19500.1451461149"
            },
            "miss_distance": {
                "astronomical": "1.8586702542",
                "lunar": "723.0227288838",
                "kilometers": "278053111.060678554",
                "miles": "172774191.5673858852"
            },
            "orbiting_body": "Juptr"
        }
    ],
    "orbital_data": {
        "orbit_id": "9",
        "orbit_determination_date": "2017-04-06 08:53:17",
        "first_observation_date": "2011-06-11",
        "last_observation_date": "2011-07-03",
        "data_arc_in_days": 22,
        "observations_used": 35,
        "orbit_uncertainty": "7",
        "minimum_orbit_intersection": ".286135",
        "jupiter_tisserand_invariant": "2.899",
        "epoch_osculation": "2459000.5",
        "eccentricity": ".5193474696260909",
        "semi_major_axis": "2.611609785269766",
        "inclination": "41.54525882213227",
        "ascending_node_longitude": "85.15590952020838",
        "orbital_period": "1541.561507805111",
        "perihelion_distance": "1.255276851639175",
        "perihelion_argument": "209.2805838002271",
        "aphelion_distance": "3.967942718900358",
        "perihelion_time": "2458859.151192337163",
        "mean_anomaly": "33.00910829764592",
        "mean_motion": ".2335294428261712",
        "equinox": "J2000",
        "orbit_class": {
            "orbit_class_type": "AMO",
            "orbit_class_description": "Near-Earth asteroid orbits similar to that of 1221 Amor",
            "orbit_class_range": "1.017 AU < q (perihelion) < 1.3 AU"
        }
    },
    "is_sentry_object": false
}